{
  "norad_id": 45183,
  "name": "STARLINK-1202",
  "history": [
    {
      "epoch": "2026-03-28T21:23:06.903168Z",
      "apogee_km": 476.01202831933097,
      "perigee_km": 474.4102637906344,
      "latitude_deg": -1.980303760664855e-05,
      "longitude_deg": 162.97962507622285,
      "height_km": 476.0514715797565,
      "semi_major_axis_km": 6853.348146054982,
      "eccentricity": 0.00011686,
      "inclination_deg": 53.1582,
      "raan_deg": 310.0634,
      "arg_perigee_deg": 85.8683,
      "mean_anomaly_deg": 274.2451,
      "mean_motion_rev_day": 15.30201314
    }
  ]
}